start=new Date('2022-01-13T00:00:00.000Z').valueOf();
sats=[{"SEMIMAJOR_AXIS":"6925.384","TIME_SYSTEM":"UTC","TLE_LINE2":"2 48563  53.0547 102.3503 0001382  97.3369 262.7777 15.06388284 36537","TLE_LINE1":"1 48563U 21041L   22012.54607359 -.00001493  00000-0 -81364-4 0  9995","DECAY_DATE":null,"ARG_OF_PERICENTER":"97.3369","CENTER_NAME":"EARTH","ELEMENT_SET_NO":"999","CLASSIFICATION_TYPE":"U","RCS_SIZE":"LARGE","ECCENTRICITY":"0.00013820","GP_ID":"193736047","APOAPSIS":"548.207","MEAN_MOTION_DOT":"-0.00001493","INCLINATION":"53.0547","OBJECT_TYPE":"PAYLOAD","EPHEMERIS_TYPE":"0","OBJECT_NAME":"STARLINK-2188","NORAD_CAT_ID":"48563","COUNTRY_CODE":"US","RA_OF_ASC_NODE":"102.3503","MEAN_MOTION":"15.06388284","PERIOD":"95.593","REF_FRAME":"TEME","REV_AT_EPOCH":"3653","PERIAPSIS":"546.292","EPOCH":"2022-01-12T13:06:20.758176","OBJECT_ID":"2021-041L","FILE":"3270709","MEAN_ANOMALY":"262.7777","MEAN_MOTION_DDOT":"0.0000000000000","SITE":"AFETR","BSTAR":"-0.00008136400000","MEAN_ELEMENT_THEORY":"SGP4","LAUNCH_DATE":"2021-05-15"},{"DECAY_DATE":null,"TLE_LINE1":"1 48564U 21041M   22012.53870384 -.00001100  00000-0 -54991-4 0  9996","CENTER_NAME":"EARTH","ARG_OF_PERICENTER":"94.5725","SEMIMAJOR_AXIS":"6925.373","TIME_SYSTEM":"UTC","TLE_LINE2":"2 48564  53.0564 102.3871 0001352  94.5725 265.5418 15.06391902 36531","OBJECT_TYPE":"PAYLOAD","NORAD_CAT_ID":"48564","OBJECT_NAME":"STARLINK-2190","EPHEMERIS_TYPE":"0","INCLINATION":"53.0564","MEAN_MOTION_DOT":"-0.00001100","APOAPSIS":"548.175","ECCENTRICITY":"0.00013520","GP_ID":"193736797","RA_OF_ASC_NODE":"102.3871","COUNTRY_CODE":"US","ELEMENT_SET_NO":"999","RCS_SIZE":"LARGE","CLASSIFICATION_TYPE":"U","EPOCH":"2022-01-12T12:55:44.011776","PERIAPSIS":"546.302","FILE":"3270709","OBJECT_ID":"2021-041M","REF_FRAME":"TEME","PERIOD":"95.593","MEAN_MOTION":"15.06391902","REV_AT_EPOCH":"3653","MEAN_ELEMENT_THEORY":"SGP4","BSTAR":"-0.00005499100000","SITE":"AFETR","LAUNCH_DATE":"2021-05-15","MEAN_ANOMALY":"265.5418","MEAN_MOTION_DDOT":"0.0000000000000"},{"RCS_SIZE":"LARGE","CLASSIFICATION_TYPE":"U","ELEMENT_SET_NO":"999","RA_OF_ASC_NODE":"102.4038","COUNTRY_CODE":"US","MEAN_MOTION_DOT":"-0.00000764","INCLINATION":"53.0560","OBJECT_NAME":"STARLINK-2191","OBJECT_TYPE":"PAYLOAD","EPHEMERIS_TYPE":"0","NORAD_CAT_ID":"48565","GP_ID":"193735044","ECCENTRICITY":"0.00011620","APOAPSIS":"548.032","TLE_LINE2":"2 48565  53.0560 102.4038 0001162  94.5647 265.5474 15.06395570 36533","SEMIMAJOR_AXIS":"6925.362","TIME_SYSTEM":"UTC","CENTER_NAME":"EARTH","ARG_OF_PERICENTER":"94.5647","DECAY_DATE":null,"TLE_LINE1":"1 48565U 21041N   22012.53501491 -.00000764  00000-0 -32381-4 0  9991","MEAN_MOTION_DDOT":"0.0000000000000","MEAN_ANOMALY":"265.5474","LAUNCH_DATE":"2021-05-15","BSTAR":"-0.00003238100000","MEAN_ELEMENT_THEORY":"SGP4","SITE":"AFETR","REV_AT_EPOCH":"3653","PERIOD":"95.592","REF_FRAME":"TEME","MEAN_MOTION":"15.06395570","FILE":"3270709","OBJECT_ID":"2021-041N","EPOCH":"2022-01-12T12:50:25.288224","PERIAPSIS":"546.422"},{"PERIOD":"95.591","REF_FRAME":"TEME","MEAN_MOTION":"15.06413223","REV_AT_EPOCH":"3639","EPOCH":"2022-01-12T13:24:51.976224","PERIAPSIS":"546.237","FILE":"3270709","OBJECT_ID":"2021-041P","MEAN_ANOMALY":"267.3079","MEAN_MOTION_DDOT":"0.0000000000000","BSTAR":"-0.00018743000000","MEAN_ELEMENT_THEORY":"SGP4","SITE":"AFETR","LAUNCH_DATE":"2021-05-15","SEMIMAJOR_AXIS":"6925.308","TIME_SYSTEM":"UTC","TLE_LINE2":"2 48566  53.0560 112.2882 0001352  92.8065 267.3079 15.06413223 36397","DECAY_DATE":null,"TLE_LINE1":"1 48566U 21041P   22012.55893491 -.00003073  00000-0 -18743-3 0  9999","CENTER_NAME":"EARTH","ARG_OF_PERICENTER":"92.8065","ELEMENT_SET_NO":"999","RCS_SIZE":"MEDIUM","CLASSIFICATION_TYPE":"U","MEAN_MOTION_DOT":"-0.00003073","INCLINATION":"53.0560","EPHEMERIS_TYPE":"0","OBJECT_TYPE":"PAYLOAD","OBJECT_NAME":"STARLINK-2214","NORAD_CAT_ID":"48566","ECCENTRICITY":"0.00013520","GP_ID":"193735296","APOAPSIS":"548.109","RA_OF_ASC_NODE":"112.2882","COUNTRY_CODE":"US"},{"MEAN_MOTION":"15.06388455","REF_FRAME":"TEME","PERIOD":"95.593","REV_AT_EPOCH":"3639","PERIAPSIS":"546.394","EPOCH":"2022-01-12T13:42:10.564704","OBJECT_ID":"2021-041Q","FILE":"3270709","MEAN_ANOMALY":"261.5978","MEAN_MOTION_DDOT":"0.0000000000000","SITE":"AFETR","MEAN_ELEMENT_THEORY":"SGP4","BSTAR":"-0.00008404000000","LAUNCH_DATE":"2021-05-15","TIME_SYSTEM":"UTC","SEMIMAJOR_AXIS":"6925.384","TLE_LINE2":"2 48567  53.0553 112.2225 0001235  98.5151 261.5978 15.06388455 36392","TLE_LINE1":"1 48567U 21041Q   22012.57095561 -.00001532  00000-0 -84040-4 0  9996","DECAY_DATE":null,"ARG_OF_PERICENTER":"98.5151","CENTER_NAME":"EARTH","ELEMENT_SET_NO":"999","CLASSIFICATION_TYPE":"U","RCS_SIZE":"LARGE","APOAPSIS":"548.104","GP_ID":"193736547","ECCENTRICITY":"0.00012350","OBJECT_TYPE":"PAYLOAD","OBJECT_NAME":"STARLINK-2215","EPHEMERIS_TYPE":"0","NORAD_CAT_ID":"48567","MEAN_MOTION_DOT":"-0.00001532","INCLINATION":"53.0553","COUNTRY_CODE":"US","RA_OF_ASC_NODE":"112.2225"},{"REV_AT_EPOCH":"3652","PERIOD":"95.592","REF_FRAME":"TEME","MEAN_MOTION":"15.06401170","FILE":"3270709","OBJECT_ID":"2021-041R","EPOCH":"2022-01-12T12:23:52.316736","PERIAPSIS":"546.270","MEAN_MOTION_DDOT":"0.0000000000000","MEAN_ANOMALY":"261.8488","LAUNCH_DATE":"2021-05-15","BSTAR":"-0.00007595100000","MEAN_ELEMENT_THEORY":"SGP4","SITE":"AFETR","TLE_LINE2":"2 48568  53.0561 102.4664 0001358  98.2655 261.8488 15.06401170 36526","SEMIMAJOR_AXIS":"6925.345","TIME_SYSTEM":"UTC","CENTER_NAME":"EARTH","ARG_OF_PERICENTER":"98.2655","DECAY_DATE":null,"TLE_LINE1":"1 48568U 21041R   22012.51657774 -.00001413  00000-0 -75951-4 0  9990","RCS_SIZE":"MEDIUM","CLASSIFICATION_TYPE":"U","ELEMENT_SET_NO":"999","RA_OF_ASC_NODE":"102.4664","COUNTRY_CODE":"US","MEAN_MOTION_DOT":"-0.00001413","INCLINATION":"53.0561","OBJECT_TYPE":"PAYLOAD","OBJECT_NAME":"STARLINK-2217","EPHEMERIS_TYPE":"0","NORAD_CAT_ID":"48568","GP_ID":"193736298","ECCENTRICITY":"0.00013580","APOAPSIS":"548.150"},{"OBJECT_ID":"2021-041S","FILE":"3270709","PERIAPSIS":"546.405","EPOCH":"2022-01-12T13:01:02.344800","REV_AT_EPOCH":"3653","MEAN_MOTION":"15.06398456","PERIOD":"95.592","REF_FRAME":"TEME","LAUNCH_DATE":"2021-05-15","SITE":"AFETR","BSTAR":"-0.00005329800000","MEAN_ELEMENT_THEORY":"SGP4","MEAN_MOTION_DDOT":"0.0000000000000","MEAN_ANOMALY":"267.9354","ARG_OF_PERICENTER":"92.1769","CENTER_NAME":"EARTH","DECAY_DATE":null,"TLE_LINE1":"1 48569U 21041S   22012.54238825 -.00001075  00000-0 -53298-4 0  9990","TLE_LINE2":"2 48569  53.0554 102.3694 0001174  92.1769 267.9354 15.06398456 36538","TIME_SYSTEM":"UTC","SEMIMAJOR_AXIS":"6925.353","COUNTRY_CODE":"US","RA_OF_ASC_NODE":"102.3694","ECCENTRICITY":"0.00011740","GP_ID":"193735544","APOAPSIS":"548.031","MEAN_MOTION_DOT":"-0.00001075","INCLINATION":"53.0554","OBJECT_TYPE":"PAYLOAD","OBJECT_NAME":"STARLINK-2219","NORAD_CAT_ID":"48569","EPHEMERIS_TYPE":"0","CLASSIFICATION_TYPE":"U","RCS_SIZE":"LARGE","ELEMENT_SET_NO":"999"},{"MEAN_ELEMENT_THEORY":"SGP4","BSTAR":"-0.00004273100000","SITE":"AFETR","LAUNCH_DATE":"2021-05-15","MEAN_ANOMALY":"263.1352","MEAN_MOTION_DDOT":"0.0000000000000","EPOCH":"2022-01-12T12:43:47.126784","PERIAPSIS":"546.278","FILE":"3270709","OBJECT_ID":"2021-041T","REF_FRAME":"TEME","PERIOD":"95.592","MEAN_MOTION":"15.06398763","REV_AT_EPOCH":"3638","OBJECT_NAME":"STARLINK-2220","OBJECT_TYPE":"PAYLOAD","NORAD_CAT_ID":"48570","EPHEMERIS_TYPE":"0","MEAN_MOTION_DOT":"-0.00000918","INCLINATION":"53.0547","APOAPSIS":"548.156","ECCENTRICITY":"0.00013560","GP_ID":"193735796","RA_OF_ASC_NODE":"112.4048","COUNTRY_CODE":"US","ELEMENT_SET_NO":"999","RCS_SIZE":"LARGE","CLASSIFICATION_TYPE":"U","TLE_LINE1":"1 48570U 21041T   22012.53040656 -.00000918  00000-0 -42731-4 0  9999","DECAY_DATE":null,"CENTER_NAME":"EARTH","ARG_OF_PERICENTER":"96.9792","SEMIMAJOR_AXIS":"6925.352","TIME_SYSTEM":"UTC","TLE_LINE2":"2 48570  53.0547 112.4048 0001356  96.9792 263.1352 15.06398763 36387"},{"ECCENTRICITY":"0.00013880","GP_ID":"193736048","APOAPSIS":"548.202","MEAN_MOTION_DOT":"-0.00001321","INCLINATION":"53.0564","EPHEMERIS_TYPE":"0","OBJECT_TYPE":"PAYLOAD","NORAD_CAT_ID":"48571","OBJECT_NAME":"STARLINK-2221","COUNTRY_CODE":"US","RA_OF_ASC_NODE":"112.3895","ELEMENT_SET_NO":"999","CLASSIFICATION_TYPE":"U","RCS_SIZE":"LARGE","TLE_LINE1":"1 48571U 21041U   22012.53777799 -.00001321  00000-0 -69845-4 0  9999","DECAY_DATE":null,"ARG_OF_PERICENTER":"94.9249","CENTER_NAME":"EARTH","SEMIMAJOR_AXIS":"6925.376","TIME_SYSTEM":"UTC","TLE_LINE2":"2 48571  53.0564 112.3895 0001388  94.9249 265.1898 15.06390963 36398","SITE":"AFETR","BSTAR":"-0.00006984500000","MEAN_ELEMENT_THEORY":"SGP4","LAUNCH_DATE":"2021-05-15","MEAN_ANOMALY":"265.1898","MEAN_MOTION_DDOT":"0.0000000000000","PERIAPSIS":"546.280","EPOCH":"2022-01-12T12:54:24.018336","OBJECT_ID":"2021-041U","FILE":"3270709","MEAN_MOTION":"15.06390963","PERIOD":"95.593","REF_FRAME":"TEME","REV_AT_EPOCH":"3639"},{"REV_AT_EPOCH":"3639","MEAN_MOTION":"15.06401716","PERIOD":"95.592","REF_FRAME":"TEME","OBJECT_ID":"2021-041V","FILE":"3270709","PERIAPSIS":"546.349","EPOCH":"2022-01-12T12:49:04.429056","MEAN_MOTION_DDOT":"0.0000000000000","MEAN_ANOMALY":"262.5737","LAUNCH_DATE":"2021-05-15","SITE":"AFETR","BSTAR":"0.00008367300000","MEAN_ELEMENT_THEORY":"SGP4","TLE_LINE2":"2 48572  53.0549 112.3911 0001241  97.5393 262.5737 15.06401716 36390","TIME_SYSTEM":"UTC","SEMIMAJOR_AXIS":"6925.343","ARG_OF_PERICENTER":"97.5393","CENTER_NAME":"EARTH","TLE_LINE1":"1 48572U 21041V   22012.53407904  .00000965  00000-0  83673-4 0  9994","DECAY_DATE":null,"CLASSIFICATION_TYPE":"U","RCS_SIZE":"LARGE","ELEMENT_SET_NO":"999","COUNTRY_CODE":"US","RA_OF_ASC_NODE":"112.3911","GP_ID":"193736798","ECCENTRICITY":"0.00012410","APOAPSIS":"548.068","INCLINATION":"53.0549","MEAN_MOTION_DOT":"0.00000965","OBJECT_NAME":"STARLINK-2222","OBJECT_TYPE":"PAYLOAD","EPHEMERIS_TYPE":"0","NORAD_CAT_ID":"48572"}];
